FLOCK 4G-10             
1 62670U 25009BP  26068.70827885  .00013952  00000+0  52624-3 0  9995
2 62670  97.3967 150.5883 0003469 341.4844  18.6269 15.27155944121340
STARLINK-33619          
1 63324U 25057T   26068.30441643  .00025210  00000+0  92208-3 0  9997
2 63324  43.0033  32.5765 0001968 250.6607 109.4032 15.27594350 55720
